    meananomaly => '16.517',
    eccentricity => '7.05e-05',
    inclination => '98.6734'
  },
  UARS => {
    orbit => '55977',
    elset => '487',
    argperigee => '113.0972',
    epoch => '1340.7171317',
    bstar => '0.00021809',
    number => '91063',
    raan => '6.155',
    mm1 => '2.555e-05',
    meanmotion => '15.00965994',
    mm2 => '0',
    id => '21701',
    meananomaly => '247.0725',
    eccentricity => '0.0005714',
    inclination => '56.9842'
  },
  'DO-17' => {
    orbit => '61968',
    elset => '626',
    argperigee => '70.2429',
    epoch => '1339.80181885',
    bstar => '0.00027334',
    number => '90005',
    raan => '44.9758',
    mm1 => '6.82e-06',
    meanmotion => '14.31278646',
    mm2 => '0',
    id => '20440',
    meananomaly => '290.0065',
    eccentricity => '0.0012179',
    inclination => '98.3984'
  },
  'KO-23' => {
    orbit => '43788',
    elset => '50',
    argperigee => '194.255',
    epoch => '1340.93414147',
    bstar => '0.0001',
    number => '92052',
    raan => '324.2955',
    mm1 => '-3.7e-07',
    meanmotion => '12.86379619',
    mm2 => '0',
    id => '22077',
    meananomaly => '165.832',
    eccentricity => '0.0005283',
    inclination => '66.0875'
  },
  JAWSAT => {
    elset => '32',
    orbit => '693',
    epoch => '75.52219673',
    argperigee => '55.7126',
    bstar => '0.00029735',
    number => '4',
    raan => '280.8828',
    meanmotion => '14.34110882',
    mm1 => '7.8e-06',
    mm2 => '0',
    id => '26065',
    meananomaly => '304.7691',
    eccentricity => '0.003852',
    inclination => '100.2316'
  },
  'KO-25' => {
    orbit => '39542',
    elset => '94',
    argperigee => '93.1129',
    epoch => '1340.64776191',
    bstar => '0.00023096',
    number => '93061',
    raan => '22.6569',
    mm1 => '5.45e-06',
    meanmotion => '14.2916941',
    mm2 => '0',
    id => '22828',
    meananomaly => '267.1286',
    eccentricity => '0.0010779',
    inclination => '98.3275'
  },
  'SAUDISAT-1A' => {
    orbit => '6438',
    elset => '215',
    argperigee => '307.7891',
    epoch => '1340.88452985',
    bstar => '0.00079986',
    number => '57',
    raan => '298.092',
    mm1 => '5.575e-05',
    meanmotion => '14.76521761',
    mm2 => '0',
    id => '26545',
    meananomaly => '51.8606',
    eccentricity => '0.0051077',
    inclination => '64.5616'
  }
);
1;
